NORAD_CAT_ID,OBJECT_NAME,OBJECT_TYPE,EPOCH,MEAN_MOTION,ECCENTRICITY,INCLINATION,RA_OF_ASC_NODE,ARG_OF_PERICENTER,MEAN_ANOMALY,BSTAR,MEAN_MOTION_DOT,MEAN_MOTION_DDOT,TLE_LINE0,TLE_LINE1,TLE_LINE2,SEMIMAJOR_AXIS,PERIOD,APOGEE,PERIGEE,DECAYED
53420.0,STARLINK-4552,PAYLOAD,2024-05-03 02:10:04,15.08844349,0.0001216,53.2168,267.0065,89.8762,270.2369,2.598e-05,1.26e-06,0.0,0 STARLINK-4552,1 53420U 22097AJ  24124.09033508  .00000126  00000-0  25980-4 0  9992,2 53420  53.2168 267.0065 0001216  89.8762 270.2369 15.08844349 96175,6917.867,95.437,540.573,538.891,0.0
53420.0,STARLINK-4552,PAYLOAD,2024-05-03 13:17:47,15.08795539,0.0001887,53.216,264.9227,89.6029,270.5179,0.00092345,0.00014421,0.0,0 STARLINK-4552,1 53420U 22097AJ  24124.55402004  .00014421  00000-0  92345-3 0  9995,2 53420  53.2160 264.9227 0001887  89.6029 270.5179 15.08795539 96247,6918.016,95.44,541.187,538.576,0.0
53420.0,STARLINK-4552,PAYLOAD,2024-05-03 14:53:10,15.08796965,0.0001911,53.2162,264.6255,89.6738,270.4473,0.00096237,0.00015043,0.0,0 STARLINK-4552,1 53420U 22097AJ  24124.62026192  .00015043  00000-0  96237-3 0  9998,2 53420  53.2162 264.6255 0001911  89.6738 270.4473 15.08796965 96714,6918.012,95.44,541.199,538.555,0.0
53420.0,STARLINK-4552,PAYLOAD,2024-05-03 19:39:17,15.08861555,0.0001182,53.2164,263.7336,90.3117,269.8011,0.00018152,2.604e-05,0.0,0 STARLINK-4552,1 53420U 22097AJ  24124.81895800  .00002604  00000-0  18152-3 0  9998,2 53420  53.2164 263.7336 0001182  90.3117 269.8011 15.08861555 96286,6917.815,95.436,540.497,538.862,0.0
53420.0,STARLINK-4552,PAYLOAD,2024-05-04 02:00:52,15.08830009,0.0002084,53.2153,262.5435,88.7906,271.3325,-6.0833e-05,-1.256e-05,0.0,0 STARLINK-4552,1 53420U 22097AJ  24125.08394044 -.00001256  00000-0 -60833-4 0  9990,2 53420  53.2153 262.5435 0002084  88.7906 271.3325 15.08830009 96321,6917.911,95.438,541.218,538.334,0.0
53420.0,STARLINK-4552,PAYLOAD,2024-05-05 01:51:39,15.08837271,0.0001332,53.2171,258.0833,96.2364,263.878,1.3005e-05,-8.1e-07,0.0,0 STARLINK-4552,1 53420U 22097AJ  24126.07754054 -.00000081  00000-0  13005-4 0  9994,2 53420  53.2171 258.0833 0001332  96.2364 263.8780 15.08837271 96475,6917.889,95.438,540.675,538.832,0.0
53420.0,STARLINK-4552,PAYLOAD,2024-05-05 12:59:21,15.08847815,0.0001308,53.2173,256.0044,107.1849,252.9286,0.00027958,4.165e-05,0.0,0 STARLINK-4552,1 53420U 22097AJ  24126.54121666  .00004165  00000-0  27958-3 0  9990,2 53420  53.2173 256.0044 0001308 107.1849 252.9286 15.08847815 96545,6917.857,95.437,540.626,538.817,0.0
53420.0,STARLINK-4552,PAYLOAD,2024-05-05 14:34:44,15.08851745,0.0001322,53.2175,255.7071,106.9941,253.1196,0.00039283,5.971e-05,0.0,0 STARLINK-4552,1 53420U 22097AJ  24126.60745616  .00005971  00000-0  39283-3 0  9994,2 53420  53.2175 255.7071 0001322 106.9941 253.1196 15.08851745 97012,6917.844,95.437,540.624,538.795,0.0
53420.0,STARLINK-4552,PAYLOAD,2024-05-05 16:10:07,15.08853999,0.0001266,53.2171,255.4099,106.7437,253.3694,0.00067784,0.0001052,0.0,0 STARLINK-4552,1 53420U 22097AJ  24126.67369744  .00010520  00000-0  67784-3 0  9998,2 53420  53.2171 255.4099 0001266 106.7437 253.3694 15.08853999 97029,6917.838,95.437,540.578,538.827,0.0
53420.0,STARLINK-4552,PAYLOAD,2024-05-06 01:42:26,15.08844454,0.000115,53.2153,253.6233,92.5675,267.5449,0.00050129,7.7e-05,0.0,0 STARLINK-4552,1 53420U 22097AJ  24127.07114188  .00007700  00000-0  50129-3 0  9994,2 53420  53.2153 253.6233 0001150  92.5675 267.5449 15.08844454 96623,6917.867,95.437,540.527,538.936,0.0
53420.0,STARLINK-4552,PAYLOAD,2024-05-06 12:50:08,15.08836621,0.0001382,53.2147,251.5426,87.0744,273.0406,0.00011305,1.512e-05,0.0,0 STARLINK-4552,1 53420U 22097AJ  24127.53482467  .00001512  00000-0  11305-3 0  9991,2 53420  53.2147 251.5426 0001382  87.0744 273.0406 15.08836621 96699,6917.891,95.438,540.712,538.8,0.0
53420.0,STARLINK-4552,PAYLOAD,2024-05-06 14:25:32,15.08837936,0.0001222,53.2139,251.245,91.3679,268.7453,0.00026247,3.892e-05,0.0,0 STARLINK-4552,1 53420U 22097AJ  24127.60106572  .00003892  00000-0  26247-3 0  9993,2 53420  53.2139 251.2450 0001222  91.3679 268.7453 15.08837936 97168,6917.887,95.438,540.597,538.906,0.0
53420.0,STARLINK-4552,PAYLOAD,2024-05-07 14:16:18,15.08846301,0.0001182,53.2155,246.7838,80.1063,280.0063,0.00021973,3.211e-05,0.0,0 STARLINK-4552,1 53420U 22097AJ  24128.59466317  .00003211  00000-0  21973-3 0  9994,2 53420  53.2155 246.7838 0001182  80.1063 280.0063 15.08846301 97310,6917.861,95.437,540.544,538.908,0.0
53420.0,STARLINK-4552,PAYLOAD,2024-05-08 12:31:42,15.08842736,0.0001198,53.2173,242.6219,84.339,275.7739,0.00022627,3.315e-05,0.0,0 STARLINK-4552,1 53420U 22097AJ  24129.52202491  .00003315  00000-0  22627-3 0  9991,2 53420  53.2173 242.6219 0001198  84.3390 275.7739 15.08842736 96996,6917.872,95.437,540.566,538.908,0.0
53420.0,STARLINK-4552,PAYLOAD,2024-05-08 14:07:06,15.08845756,0.0001252,53.2177,242.3245,84.6271,275.4864,0.0002215,3.24e-05,0.0,0 STARLINK-4552,1 53420U 22097AJ  24129.58826408  .00003240  00000-0  22150-3 0  9995,2 53420  53.2177 242.3245 0001252  84.6271 275.4864 15.08845756 97462,6917.863,95.437,540.594,538.862,0.0
53420.0,STARLINK-4552,PAYLOAD,2024-05-09 13:57:52,15.08851208,0.0001368,53.2159,237.8621,80.5204,279.5943,0.00020384,2.959e-05,0.0,0 STARLINK-4552,1 53420U 22097AJ  24130.58186063  .00002959  00000-0  20384-3 0  9996,2 53420  53.2159 237.8621 0001368  80.5204 279.5943 15.08851208 97617,6917.846,95.437,540.657,538.765,0.0
53420.0,STARLINK-4552,PAYLOAD,2024-05-10 12:13:16,15.08845375,0.000108,53.2145,233.701,75.5342,284.577,0.0001751,2.5e-05,0.0,0 STARLINK-4552,1 53420U 22097AJ  24131.50922292  .00002500  00000-0  17510-3 0  9990,2 53420  53.2145 233.7010 0001080  75.5342 284.5770 15.08845375 97293,6917.864,95.437,540.476,538.982,0.0
53420.0,STARLINK-4552,PAYLOAD,2024-05-10 13:48:39,15.08850071,0.0001318,53.2169,233.4034,95.4635,264.6508,0.00017069,2.43e-05,0.0,0 STARLINK-4552,1 53420U 22097AJ  24131.57545921  .00002430  00000-0  17069-3 0  9998,2 53420  53.2169 233.4034 0001318  95.4635 264.6508 15.08850071 97761,6917.85,95.437,540.626,538.803,0.0
53420.0,STARLINK-4552,PAYLOAD,2024-05-11 13:39:22,15.08936068,0.0001324,53.2167,228.9452,89.8215,270.2928,0.0018291,0.00029019,0.0,0 STARLINK-4552,1 53420U 22097AJ  24132.56901581  .00029019  00000-0  18291-2 0  9995,2 53420  53.2167 228.9452 0001324  89.8215 270.2928 15.08936068 97456,6917.587,95.431,540.368,538.536,0.0
53420.0,STARLINK-4552,PAYLOAD,2024-05-11 15:14:48,15.08856256,0.0001667,53.2169,228.6485,85.2694,274.8489,-9.7812e-05,-1.845e-05,0.0,0 STARLINK-4552,1 53420U 22097AJ  24132.63527968 -.00001845  00000-0 -97812-4 0  9993,2 53420  53.2169 228.6485 0001667  85.2694 274.8489 15.08856256 97465,6917.831,95.437,540.849,538.542,0.0
53420.0,STARLINK-4552,PAYLOAD,2024-05-11 23:11:45,15.08814747,0.0002277,53.2158,227.1597,80.2328,279.8921,-0.00073517,-0.00011962,0.0,0 STARLINK-4552,1 53420U 22097AJ  24132.96649881 -.00011962  00000-0 -73517-3 0  9994,2 53420  53.2158 227.1597 0002277  80.2328 279.8921 15.08814747 97519,6917.958,95.439,541.398,538.247,0.0
53420.0,STARLINK-4552,PAYLOAD,2024-05-12 13:30:20,15.08664898,0.000107,53.2151,224.4803,82.6395,277.4718,-0.0032289,-0.00051066,0.0,0 STARLINK-4552,1 53420U 22097AJ  24133.56273883 -.00051066  00000-0 -32289-2 0  9995,2 53420  53.2151 224.4803 0001070  82.6395 277.4718 15.08664898 97600,6918.416,95.449,541.021,539.54,0.0
53420.0,STARLINK-4552,PAYLOAD,2024-05-12 15:05:44,15.0866084,0.0001094,53.2161,224.1841,88.7708,271.3409,-0.0030925,-0.0004893,0.0,0 STARLINK-4552,1 53420U 22097AJ  24133.62898755 -.00048930  00000-0 -30925-2 0  9994,2 53420  53.2161 224.1841 0001094  88.7708 271.3409 15.08660840 98076,6918.428,95.449,541.05,539.536,0.0
53420.0,STARLINK-4552,PAYLOAD,2024-05-13 05:24:12,15.08802301,0.0001218,53.2154,221.5092,100.2991,259.8139,0.0011513,0.00018064,0.0,0 STARLINK-4552,1 53420U 22097AJ  24134.22514825  .00018064  00000-0  11513-2 0  9999,2 53420  53.2154 221.5092 0001218 100.2991 259.8139 15.08802301 97709,6917.996,95.44,540.703,539.018,0.0
53420.0,STARLINK-4552,PAYLOAD,2024-05-13 11:45:45,15.0882596,0.0001601,53.2159,220.321,96.6737,263.4438,0.0010054,0.00015743,0.0,0 STARLINK-4552,1 53420U 22097AJ  24134.49010503  .00015743  00000-0  10054-2 0  9992,2 53420  53.2159 220.3210 0001601  96.6737 263.4438 15.08825960 97748,6917.923,95.438,540.896,538.681,0.0
53420.0,STARLINK-4552,PAYLOAD,2024-05-14 05:15:01,15.08827809,0.000113,53.2144,217.0497,91.1225,268.9897,0.0020221,0.0003203,0.0,0 STARLINK-4552,1 53420U 22097AJ  24135.21876580  .00032030  00000-0  20221-2 0  9993,2 53420  53.2144 217.0497 0001130  91.1225 268.9897 15.08827809 97856,6917.918,95.438,540.564,539.001,0.0
53420.0,STARLINK-4552,PAYLOAD,2024-05-14 11:36:31,15.08875412,0.0001213,53.2146,215.8606,89.5813,270.5318,0.0021194,0.00033636,0.0,0 STARLINK-4552,1 53420U 22097AJ  24135.48369976  .00033636  00000-0  21194-2 0  9991,2 53420  53.2146 215.8606 0001213  89.5813 270.5318 15.08875412 97896,6917.772,95.435,540.476,538.798,0.0
53420.0,STARLINK-4552,PAYLOAD,2024-05-14 22:44:11,15.08899354,0.0001578,53.2148,213.7766,92.7907,267.3266,0.0012335,0.0001943,0.0,0 STARLINK-4552,1 53420U 22097AJ  24135.94735266  .00019430  00000-0  12335-2 0  9994,2 53420  53.2148 213.7766 0001578  92.7907 267.3266 15.08899354 98423,6917.699,95.434,540.656,538.472,0.0
53420.0,STARLINK-4552,PAYLOAD,2024-05-15 05:05:42,15.0891162,0.0001889,53.2173,212.5885,89.8615,270.2594,0.00034013,5.14e-05,0.0,0 STARLINK-4552,1 53420U 22097AJ  24136.21229228  .00005140  00000-0  34013-3 0  9992,2 53420  53.2173 212.5885 0001889  89.8615 270.2594 15.08911620 98000,6917.661,95.433,540.833,538.22,0.0
53420.0,STARLINK-4552,PAYLOAD,2024-05-15 11:27:13,15.08912725,0.0001804,53.218,211.3979,102.3595,257.7599,0.00027143,4.043e-05,0.0,0 STARLINK-4552,1 53420U 22097AJ  24136.47723875  .00004043  00000-0  27143-3 0  9994,2 53420  53.2180 211.3979 0001804 102.3595 257.7599 15.08912725 98501,6917.658,95.433,540.771,538.275,0.0
